SL-16 R/B               
1 23405U 94077B   26169.67533809  .00000180  00000+0  11650-3 0  9990
2 23405  70.9811 140.0315 0002986 326.8718  33.2217 14.15572703630525
ARIANE 40+ R/B          
1 23561U 95021B   26169.95231311  .00000199  00000+0  77346-4 0  9992
2 23561  98.4411 240.0017 0006577 188.3324 345.0293 14.39834220633817
SL-16 R/B               
1 23705U 95058B   26169.89919637  .00000266  00000+0  16010-3 0  9994
2 23705  71.0222 327.7636 0013874 318.1422  41.8639 14.15509529582176
SL-16 R/B               
1 24298U 96051B   26169.87266978  .00000113  00000+0  87582-4 0  9991
2 24298  70.7643 321.0813 0015611 334.3620  25.6723 14.12446388535938
ORBVIEW 2 (SEASTAR)     
1 24883U 97037A   26169.90185355  .00000152  00000+0  69028-4 0  9997
2 24883  98.8689 336.9683 0003235 112.5881 247.5646 14.35553931522992
SL-16 R/B               
1 25400U 98043G   26169.76617663  .00000029  00000+0  31277-4 0  9995
2 25400  98.8364 123.9390 0010941  82.2592 277.9829 14.26068816453391
SL-16 R/B               
1 25407U 98045B   26169.71918677 -.00000202  00000+0 -77852-4 0  9992
2 25407  71.0116 329.1073 0009314 239.7939 120.2263 14.16202683441402
ISS (ZARYA)             
1 25544U 98067A   26169.80206886  .00008155  00000+0  15439-3 0  9995
2 25544  51.6331 292.1003 0004666 202.2920 157.7867 15.49302471572008
CZ-4B R/B               
1 25732U 99025C   26169.85313356  .00000025  00000+0  32540-4 0  9996
2 25732  98.6482 211.6497 0038013  54.9846 118.0165 14.18283754402505
OKEAN-O                 
1 25860U 99039A   26169.90205658  .00000472  00000+0  68512-4 0  9998
2 25860  97.9315 228.6803 0001565  71.6035 288.5347 14.80469167449364
SL-16 R/B               
1 25861U 99039B   26169.92223555  .00000342  00000+0  50036-4 0  9995
2 25861  97.9837 228.7803 0013425 290.7566  69.2208 14.81846530451857
DELTA 2 R/B             
1 25876U 99041E   26169.94495089  .00000332  00000+0  91570-4 0  9996
2 25876  51.7653 256.7751 0500848 287.2133  67.4577 14.12018251377335
HELIOS 1B               
1 25977U 99064A   26169.99424575  .00000999  00000+0  11521-3 0  9996
2 25977  98.1613  75.1863 0002537  88.7511 271.3996 14.88010463700321
TERRA                   
1 25994U 99068A   26169.93246353  .00000284  00000+0  66850-4 0  9992
2 25994  97.9455 219.4096 0001722 183.5712 224.0689 14.61104268409861
SL-16 R/B               
1 26070U 00006B   26169.90211302  .00000064  00000+0  56683-4 0  9994
2 26070  71.0019 245.0194 0015629  20.4099 339.7646 14.15834229362881
TITAN 4B R/B            
1 26474U 00047B   26169.91470468  .00002453  00000+0  15453-3 0  9991
2 26474  67.9883 115.7108 0045822 285.2518  74.3568 15.10205654408195
ENVISAT                 
1 27386U 02009A   26169.83987487  .00000058  00000+0  32747-4 0  9994
2 27386  98.3835 121.1215 0001367  89.0569 288.2464 14.39065091273724
IDEFIX & ARIANE 42P R/B 
1 27422U 02021B   26169.73766415  .00000162  00000+0  78083-4 0  9993
2 27422  98.5942 107.2040 0010607 248.8125 111.1925 14.31082716258473
AQUA                    
1 27424U 02022A   26169.96552042  .00000586  00000+0  12632-3 0  9997
2 27424  98.4277 139.2839 0001033  54.2870 341.8646 14.62160355283532
CZ-4B R/B               
1 27432U 02024C   26169.88916792  .00000018  00000+0  31681-4 0  9991
2 27432  98.8699 222.6984 0051210  95.5114  77.5035 14.14564561243548
MIDORI II (ADEOS-II)    
1 27597U 02056A   26169.88810444  .00000188  00000+0  91592-4 0  9990
2 27597  98.7878 129.1624 0002181  74.5260 285.6162 14.29350369224752
H-2A R/B                
1 27601U 02056E   26169.75680810  .00000144  00000+0  65307-4 0  9991
2 27601  98.3312 126.3741 0069255 219.8280 203.2996 14.33822597228596
CZ-4B R/B               
1 28059U 03049C   26169.95032818  .00000208  00000+0  59359-4 0  9994
2 28059  98.6896 168.8670 0046923 283.0586  76.5374 14.55101123201327
CZ-2C R/B               
1 28222U 04012C   26169.93447053  .00088498  00000+0  48971-3 0  9990
2 28222  97.7073 245.8011 0009576 276.3940  83.6235 15.79277720220176
SL-16 R/B               
1 28353U 04021B   26169.92908572 -.00000213  00000+0 -85779-4 0  9991
2 28353  71.0006  20.0335 0007204 252.6832 107.3503 14.14607682137156
CZ-4B R/B               
1 28415U 04035C   26169.83234729  .00006002  00000+0  20255-3 0  9998
2 28415  97.3361 202.8874 0029683 331.9339  28.0300 15.30645334195373
CZ-2C R/B               
1 28480U 04046B   26169.73408345  .00000053  00000+0  35096-4 0  9998
2 28480  98.1944  78.4183 0138560 215.6589 143.5277 14.27026749122915
ARIANE 5 R/B            
1 28499U 04049H   26169.47744154  .00000472  00000+0  58457-4 0  9994
2 28499  98.2721 341.7800 0084421  25.2794 335.2514 14.85450517160756
CZ-2D R/B               
1 28738U 05024B   26169.62185671  .00043270  00000+0  36499-3 0  9998
2 28738  97.3482 189.1217 0003123  51.3656 308.7885 15.69688139155564
ALOS (DAICHI)           
1 28931U 06002A   26169.79216197  .00000808  00000+0  14291-3 0  9992
2 28931  98.1324 125.3545 0001388  56.6565 303.4774 14.70053116 88338
