OBJECT_NAME,OBJECT_ID,EPOCH,MEAN_MOTION,ECCENTRICITY,INCLINATION,RA_OF_ASC_NODE,ARG_OF_PERICENTER,MEAN_ANOMALY,EPHEMERIS_TYPE,CLASSIFICATION_TYPE,NORAD_CAT_ID,ELEMENT_SET_NO,REV_AT_EPOCH,BSTAR,MEAN_MOTION_DOT,MEAN_MOTION_DDOT
SL-16 R/B,1994-077B,2026-06-18T16:12:29.210976,14.15572703,.00029865,70.9811,140.0315,326.8718,33.2217,0,U,23405,999,63052,.11649812E-3,.18E-5,0
ARIANE 40+ R/B,1995-021B,2026-06-18T22:51:19.852704,14.39834220,.00065777,98.4411,240.0017,188.3324,345.0293,0,U,23561,999,63381,.77345927E-4,.199E-5,0
SL-16 R/B,1995-058B,2026-06-18T21:34:50.566368,14.15509529,.00138741,71.0222,327.7636,318.1422,41.8639,0,U,23705,999,58217,.1600977E-3,.266E-5,0
SL-16 R/B,1996-051B,2026-06-18T20:56:38.668992,14.12446388,.00156118,70.7643,321.0813,334.3620,25.6723,0,U,24298,999,53593,.87581719E-4,.113E-5,0
ORBVIEW 2 (SEASTAR),1997-037A,2026-06-18T21:38:40.146720,14.35553931,.00032353,98.8689,336.9683,112.5881,247.5646,0,U,24883,999,52299,.69027763E-4,.152E-5,0
SL-16 R/B,1998-043G,2026-06-18T18:23:17.660832,14.26068816,.00109413,98.8364,123.9390,82.2592,277.9829,0,U,25400,999,45339,.31276839E-4,.29E-6,0
SL-16 R/B,1998-045B,2026-06-18T17:15:37.736928,14.16202683,.00093145,71.0116,329.1073,239.7939,120.2263,0,U,25407,999,44140,-.77852463E-4,-.202E-5,0
ISS (ZARYA),1998-067A,2026-06-18T19:14:58.749504,15.49302471,.00046669,51.6331,292.1003,202.2920,157.7867,0,U,25544,999,57200,.15438664E-3,.8155E-4,0
CZ-4B R/B,1999-025C,2026-06-18T20:28:30.739584,14.18283754,.00380135,98.6482,211.6497,54.9846,118.0165,0,U,25732,999,40250,.32539641E-4,.25E-6,0
OKEAN-O,1999-039A,2026-06-18T21:38:57.688512,14.80469167,.00015654,97.9315,228.6803,71.6035,288.5347,0,U,25860,999,44936,.68512004E-4,.472E-5,0
SL-16 R/B,1999-039B,2026-06-18T22:08:01.151520,14.81846530,.00134256,97.9837,228.7803,290.7566,69.2208,0,U,25861,999,45185,.50035592E-4,.342E-5,0
DELTA 2 R/B,1999-041E,2026-06-18T22:40:43.756896,14.12018251,.05008485,51.7653,256.7751,287.2133,67.4577,0,U,25876,999,37733,.91569631E-4,.332E-5,0
HELIOS 1B,1999-064A,2026-06-18T23:51:42.832800,14.88010463,.00025373,98.1613,75.1863,88.7511,271.3996,0,U,25977,999,70032,.11520605E-3,.999E-5,0
TERRA,1999-068A,2026-06-18T22:22:44.848992,14.61104268,.00017221,97.9455,219.4096,183.5712,224.0689,0,U,25994,999,40986,.66850262E-4,.284E-5,0
SL-16 R/B,2000-006B,2026-06-18T21:39:02.564928,14.15834229,.00156294,71.0019,245.0194,20.4099,339.7646,0,U,26070,999,36288,.56683143E-4,.64E-6,0
TITAN 4B R/B,2000-047B,2026-06-18T21:57:10.484352,15.10205654,.00458229,67.9883,115.7108,285.2518,74.3568,0,U,26474,999,40819,.15452815E-3,.2453E-4,0
ENVISAT,2002-009A,2026-06-18T20:09:25.188768,14.39065091,.00013673,98.3835,121.1215,89.0569,288.2464,0,U,27386,999,27372,.32747266E-4,.58E-6,0
IDEFIX & ARIANE 42P R/B,2002-021B,2026-06-18T17:42:14.182560,14.31082716,.00106072,98.5942,107.2040,248.8125,111.1925,0,U,27422,999,25847,.78083382E-4,.162E-5,0
AQUA,2002-022A,2026-06-18T23:10:20.964288,14.62160355,.00010332,98.4277,139.2839,54.2870,341.8646,0,U,27424,999,28353,.12632202E-3,.586E-5,0
CZ-4B R/B,2002-024C,2026-06-18T21:20:24.108288,14.14564561,.005121,98.8699,222.6984,95.5114,77.5035,0,U,27432,999,24354,.31681466E-4,.18E-6,0
MIDORI II (ADEOS-II),2002-056A,2026-06-18T21:18:52.223616,14.29350369,.00021811,98.7878,129.1624,74.5260,285.6162,0,U,27597,999,22475,.9159171E-4,.188E-5,0
H-2A R/B,2002-056E,2026-06-18T18:09:48.219840,14.33822597,.00692552,98.3312,126.3741,219.8280,203.2996,0,U,27601,999,22859,.65306678E-4,.144E-5,0
CZ-4B R/B,2003-049C,2026-06-18T22:48:28.354752,14.55101123,.00469238,98.6896,168.8670,283.0586,76.5374,0,U,28059,999,20132,.59358678E-4,.208E-5,0
CZ-2C R/B,2004-012C,2026-06-18T22:25:38.253792,15.79277720,.00095764,97.7073,245.8011,276.3940,83.6235,0,U,28222,999,22017,.48971036E-3,.88498E-3,0
SL-16 R/B,2004-021B,2026-06-18T22:17:53.006208,14.14607682,.00072047,71.0006,20.0335,252.6832,107.3503,0,U,28353,999,13715,-.8577942E-4,-.213E-5,0
CZ-4B R/B,2004-035C,2026-06-18T19:58:34.805856,15.30645334,.00296831,97.3361,202.8874,331.9339,28.0300,0,U,28415,999,19537,.20255211E-3,.6002E-4,0
CZ-2C R/B,2004-046B,2026-06-18T17:37:04.810080,14.27026749,.01385607,98.1944,78.4183,215.6589,143.5277,0,U,28480,999,12291,.35096153E-4,.53E-6,0
ARIANE 5 R/B,2004-049H,2026-06-18T11:27:30.949056,14.85450517,.0084421,98.2721,341.7800,25.2794,335.2514,0,U,28499,999,16075,.58457E-4,.472E-5,0
CZ-2D R/B,2005-024B,2026-06-18T14:55:28.419744,15.69688139,.00031233,97.3482,189.1217,51.3656,308.7885,0,U,28738,999,15556,.36498857E-3,.4327E-3,0
ALOS (DAICHI),2006-002A,2026-06-18T19:00:42.794208,14.70053116,.00013886,98.1324,125.3545,56.6565,303.4774,0,U,28931,999,8833,.14291089E-3,.808E-5,0
